{
  "schema": "int-telemetry-real-tle-snapshot/v1",
  "source": "celestrak",
  "group": "IRIDIUM-NEXT",
  "format": "celestrak-gp-json",
  "source_url": "https://celestrak.org/NORAD/elements/gp.php?GROUP=IRIDIUM-NEXT&FORMAT=JSON",
  "downloaded_at": "2026-07-07T06:33:54.787Z",
  "generated_at": "2026-07-07T06:33:56.153Z",
  "fingerprint": "75f53801",
  "shell_id": "iridium-next-real-86.4deg-785km",
  "catalog_count": 80,
  "shell_count": 67,
  "selected_count": 66,
  "mean_altitude_km": 784.8,
  "mean_inclination_deg": 86.3965,
  "mean_mean_motion_rev_per_day": 14.34218389,
  "layout": {
    "planes": 6,
    "satellites_per_plane": 11,
    "selection_strategy": "target-shell-raan-clusters-even-slot-sampling",
    "raan_cluster_threshold_deg": 6,
    "target_inclination_deg": 86.4,
    "target_altitude_km": 781,
    "selected_shell_key": "86.5deg-800km",
    "target_shell_distance": 4.16
  },
  "satellites": [
    {
      "satellite_id": "P04-S04",
      "norad_id": 43255,
      "satellite_name": "IRIDIUM 148",
      "cospar_id": "2018-030G",
      "shell_id": "iridium-next-real-86.4deg-785km",
      "plane_id": 3,
      "slot_id": 3,
      "epoch": "2026-07-06T16:14:51.397728",
      "inclination": 86.3966,
      "raan": 282.3122000000001,
      "eccentricity": 0.000234,
      "argument_of_perigee": 94.95569999999998,
      "mean_anomaly": 265.1906,
      "mean_motion": 14.34217543,
      "bstar": 0.000062416,
      "status": "active",
      "raw_omm": {
        "OBJECT_NAME": "IRIDIUM 148",
        "OBJECT_ID": "2018-030G",
        "EPOCH": "2026-07-06T16:14:51.397728",
        "MEAN_MOTION": 14.34217543,
        "ECCENTRICITY": 0.000234,
        "INCLINATION": 86.3966,
        "RA_OF_ASC_NODE": 282.3122,
        "ARG_OF_PERICENTER": 94.9557,
        "MEAN_ANOMALY": 265.1906,
        "EPHEMERIS_TYPE": 0,
        "CLASSIFICATION_TYPE": "U",
        "NORAD_CAT_ID": 43255,
        "ELEMENT_SET_NO": 999,
        "REV_AT_EPOCH": 43296,
        "BSTAR": 0.000062416,
        "MEAN_MOTION_DOT": 0.00000195,
        "MEAN_MOTION_DDOT": 0
      },
      "source": "celestrak",
      "source_url": "https://celestrak.org/NORAD/elements/gp.php?GROUP=IRIDIUM-NEXT&FORMAT=JSON",
      "catalog_fingerprint": "75f53801"
    },
    {
      "satellite_id": "P04-S05",
      "norad_id": 43252,
      "satellite_name": "IRIDIUM 140",
      "cospar_id": "2018-030D",
      "shell_id": "iridium-next-real-86.4deg-785km",
      "plane_id": 3,
      "slot_id": 4,
      "epoch": "2026-07-06T16:05:43.215648",
      "inclination": 86.3963,
      "raan": 282.28690000000006,
      "eccentricity": 0.0002229,
      "argument_of_perigee": 95.94990000000001,
      "mean_anomaly": 264.1951,
      "mean_motion": 14.34219087,
      "bstar": 0.000044974,
      "status": "active",
      "raw_omm": {
        "OBJECT_NAME": "IRIDIUM 140",
        "OBJECT_ID": "2018-030D",
        "EPOCH": "2026-07-06T16:05:43.215648",
        "MEAN_MOTION": 14.34219087,
        "ECCENTRICITY": 0.0002229,
        "INCLINATION": 86.3963,
        "RA_OF_ASC_NODE": 282.2869,
        "ARG_OF_PERICENTER": 95.9499,
        "MEAN_ANOMALY": 264.1951,
        "EPHEMERIS_TYPE": 0,
        "CLASSIFICATION_TYPE": "U",
        "NORAD_CAT_ID": 43252,
        "ELEMENT_SET_NO": 999,
        "REV_AT_EPOCH": 43298,
        "BSTAR": 0.000044974,
        "MEAN_MOTION_DOT": 0.00000146,
        "MEAN_MOTION_DDOT": 0
      },
      "source": "celestrak",
      "source_url": "https://celestrak.org/NORAD/elements/gp.php?GROUP=IRIDIUM-NEXT&FORMAT=JSON",
      "catalog_fingerprint": "75f53801"
    },
    {
      "satellite_id": "P04-S06",
      "norad_id": 43258,
      "satellite_name": "IRIDIUM 143",
      "cospar_id": "2018-030K",
      "shell_id": "iridium-next-real-86.4deg-785km",
      "plane_id": 3,
      "slot_id": 5,
      "epoch": "2026-07-06T17:37:03.235008",
      "inclination": 86.3968,
      "raan": 282.38689999999997,
      "eccentricity": 0.000227,
      "argument_of_perigee": 97.7894,
      "mean_anomaly": 262.356,
      "mean_motion": 14.34217676,
      "bstar": 0.000035732,
      "status": "active",
      "raw_omm": {
        "OBJECT_NAME": "IRIDIUM 143",
        "OBJECT_ID": "2018-030K",
        "EPOCH": "2026-07-06T17:37:03.235008",
        "MEAN_MOTION": 14.34217676,
        "ECCENTRICITY": 0.000227,
        "INCLINATION": 86.3968,
        "RA_OF_ASC_NODE": 282.3869,
        "ARG_OF_PERICENTER": 97.7894,
        "MEAN_ANOMALY": 262.356,
        "EPHEMERIS_TYPE": 0,
        "CLASSIFICATION_TYPE": "U",
        "NORAD_CAT_ID": 43258,
        "ELEMENT_SET_NO": 999,
        "REV_AT_EPOCH": 43289,
        "BSTAR": 0.000035732,
        "MEAN_MOTION_DOT": 0.0000012,
        "MEAN_MOTION_DDOT": 0
      },
      "source": "celestrak",
      "source_url": "https://celestrak.org/NORAD/elements/gp.php?GROUP=IRIDIUM-NEXT&FORMAT=JSON",
      "catalog_fingerprint": "75f53801"
    },
    {
      "satellite_id": "P04-S07",
      "norad_id": 43253,
      "satellite_name": "IRIDIUM 145",
      "cospar_id": "2018-030E",
      "shell_id": "iridium-next-real-86.4deg-785km",
      "plane_id": 3,
      "slot_id": 6,
      "epoch": "2026-07-06T17:27:54.844704",
      "inclination": 86.3964,
      "raan": 282.2354,
      "eccentricity": 0.0002364,
      "argument_of_perigee": 102.94960000000003,
      "mean_anomaly": 257.19640000000004,
      "mean_motion": 14.34216712,
      "bstar": 0.000032404,
      "status": "active",
      "raw_omm": {
        "OBJECT_NAME": "IRIDIUM 145",
        "OBJECT_ID": "2018-030E",
        "EPOCH": "2026-07-06T17:27:54.844704",
        "MEAN_MOTION": 14.34216712,
        "ECCENTRICITY": 0.0002364,
        "INCLINATION": 86.3964,
        "RA_OF_ASC_NODE": 282.2354,
        "ARG_OF_PERICENTER": 102.9496,
        "MEAN_ANOMALY": 257.1964,
        "EPHEMERIS_TYPE": 0,
        "CLASSIFICATION_TYPE": "U",
        "NORAD_CAT_ID": 43253,
        "ELEMENT_SET_NO": 999,
        "REV_AT_EPOCH": 43292,
        "BSTAR": 0.000032404,
        "MEAN_MOTION_DOT": 0.00000111,
        "MEAN_MOTION_DDOT": 0
      },
      "source": "celestrak",
      "source_url": "https://celestrak.org/NORAD/elements/gp.php?GROUP=IRIDIUM-NEXT&FORMAT=JSON",
      "catalog_fingerprint": "75f53801"
    },
    {
      "satellite_id": "P04-S08",
      "norad_id": 43251,
      "satellite_name": "IRIDIUM 157",
      "cospar_id": "2018-030C",
      "shell_id": "iridium-next-real-86.4deg-785km",
      "plane_id": 3,
      "slot_id": 7,
      "epoch": "2026-07-06T17:18:47.327040",
      "inclination": 86.3966,
      "raan": 282.25350000000003,
      "eccentricity": 0.0002256,
      "argument_of_perigee": 95.43799999999999,
      "mean_anomaly": 264.70730000000003,
      "mean_motion": 14.3421842,
      "bstar": 0.000024201,
      "status": "active",
      "raw_omm": {
        "OBJECT_NAME": "IRIDIUM 157",
        "OBJECT_ID": "2018-030C",
        "EPOCH": "2026-07-06T17:18:47.327040",
        "MEAN_MOTION": 14.3421842,
        "ECCENTRICITY": 0.0002256,
        "INCLINATION": 86.3966,
        "RA_OF_ASC_NODE": 282.2535,
        "ARG_OF_PERICENTER": 95.438,
        "MEAN_ANOMALY": 264.7073,
        "EPHEMERIS_TYPE": 0,
        "CLASSIFICATION_TYPE": "U",
        "NORAD_CAT_ID": 43251,
        "ELEMENT_SET_NO": 999,
        "REV_AT_EPOCH": 43293,
        "BSTAR": 0.000024201,
        "MEAN_MOTION_DOT": 8.8e-7,
        "MEAN_MOTION_DDOT": 0
      },
      "source": "celestrak",
      "source_url": "https://celestrak.org/NORAD/elements/gp.php?GROUP=IRIDIUM-NEXT&FORMAT=JSON",
      "catalog_fingerprint": "75f53801"
    },
    {
      "satellite_id": "P04-S09",
      "norad_id": 43256,
      "satellite_name": "IRIDIUM 142",
      "cospar_id": "2018-030H",
      "shell_id": "iridium-next-real-86.4deg-785km",
      "plane_id": 3,
      "slot_id": 8,
      "epoch": "2026-07-06T15:29:11.315040",
      "inclination": 86.396,
      "raan": 282.21350000000007,
      "eccentricity": 0.0002369,
      "argument_of_perigee": 98.94100000000003,
      "mean_anomaly": 261.20540000000005,
      "mean_motion": 14.34218923,
      "bstar": 0.000091602,
      "status": "active",
      "raw_omm": {
        "OBJECT_NAME": "IRIDIUM 142",
        "OBJECT_ID": "2018-030H",
        "EPOCH": "2026-07-06T15:29:11.315040",
        "MEAN_MOTION": 14.34218923,
        "ECCENTRICITY": 0.0002369,
        "INCLINATION": 86.396,
        "RA_OF_ASC_NODE": 282.2135,
        "ARG_OF_PERICENTER": 98.941,
        "MEAN_ANOMALY": 261.2054,
        "EPHEMERIS_TYPE": 0,
        "CLASSIFICATION_TYPE": "U",
        "NORAD_CAT_ID": 43256,
        "ELEMENT_SET_NO": 999,
        "REV_AT_EPOCH": 43292,
        "BSTAR": 0.000091602,
        "MEAN_MOTION_DOT": 0.00000276,
        "MEAN_MOTION_DDOT": 0
      },
      "source": "celestrak",
      "source_url": "https://celestrak.org/NORAD/elements/gp.php?GROUP=IRIDIUM-NEXT&FORMAT=JSON",
      "catalog_fingerprint": "75f53801"
    }
  ]
}